[{"OBJECT_NAME":"STARLINK-35819","OBJECT_ID":"2025-247W","EPOCH":"2026-02-08T02:29:45.968928","MEAN_MOTION":15.3019005,"ECCENTRICITY":0.00018358,"INCLINATION":53.1595,"RA_OF_ASC_NODE":328.8857,"ARG_OF_PERICENTER":35.2974,"MEAN_ANOMALY":324.8148,"EPHEMERIS_TYPE":0,"CLASSIFICATION_TYPE":"U","NORAD_CAT_ID":66285,"ELEMENT_SET_NO":999,"REV_AT_EPOCH":1650,"BSTAR":0.00017757962,"MEAN_MOTION_DOT":4.902e-5,"MEAN_MOTION_DDOT":0},{"OBJECT_NAME":"STARLINK-35783","OBJECT_ID":"2025-247X","EPOCH":"2026-02-08T03:57:44.805888","MEAN_MOTION":15.30181945,"ECCENTRICITY":0.0001273,"INCLINATION":53.1584,"RA_OF_ASC_NODE":328.5558,"ARG_OF_PERICENTER":89.368,"MEAN_ANOMALY":270.7467,"EPHEMERIS_TYPE":0,"CLASSIFICATION_TYPE":"U","NORAD_CAT_ID":66286,"ELEMENT_SET_NO":999,"REV_AT_EPOCH":1651,"BSTAR":0.0014624988,"MEAN_MOTION_DOT":0.00043184,"MEAN_MOTION_DDOT":0},{"OBJECT_NAME":"STARLINK-34884","OBJECT_ID":"2025-247Y","EPOCH":"2026-02-08T05:24:12.038112","MEAN_MOTION":15.30197457,"ECCENTRICITY":0.00011377,"INCLINATION":53.1591,"RA_OF_ASC_NODE":328.2213,"ARG_OF_PERICENTER":61.5628,"MEAN_ANOMALY":298.5487,"EPHEMERIS_TYPE":0,"CLASSIFICATION_TYPE":"U","NORAD_CAT_ID":66287,"ELEMENT_SET_NO":999,"REV_AT_EPOCH":1652,"BSTAR":0.0015365818,"MEAN_MOTION_DOT":0.00045425,"MEAN_MOTION_DDOT":0},{"OBJECT_NAME":"STARLINK-34896","OBJECT_ID":"2025-247Z","EPOCH":"2026-02-08T05:18:07.164864","MEAN_MOTION":15.30192674,"ECCENTRICITY":0.00010671,"INCLINATION":53.1592,"RA_OF_ASC_NODE":328.1923,"ARG_OF_PERICENTER":88.9372,"MEAN_ANOMALY":271.1751,"EPHEMERIS_TYPE":0,"CLASSIFICATION_TYPE":"U","NORAD_CAT_ID":66288,"ELEMENT_SET_NO":999,"REV_AT_EPOCH":1652,"BSTAR":0.0012416285,"MEAN_MOTION_DOT":0.00036587,"MEAN_MOTION_DDOT":0},{"OBJECT_NAME":"STARLINK-35802","OBJECT_ID":"2025-247AA","EPOCH":"2026-02-08T05:10:31.370304","MEAN_MOTION":15.3019874,"ECCENTRICITY":0.00011775,"INCLINATION":53.1593,"RA_OF_ASC_NODE":328.1603,"ARG_OF_PERICENTER":71.0109,"MEAN_ANOMALY":289.1019,"EPHEMERIS_TYPE":0,"CLASSIFICATION_TYPE":"U","NORAD_CAT_ID":66289,"ELEMENT_SET_NO":999,"REV_AT_EPOCH":1652,"BSTAR":0.0015066792,"MEAN_MOTION_DOT":0.0004453,"MEAN_MOTION_DDOT":0},{"OBJECT_NAME":"STARLINK-35799","OBJECT_ID":"2025-247AB","EPOCH":"2026-02-08T05:02:54.823200","MEAN_MOTION":15.30201973,"ECCENTRICITY":0.0001331,"INCLINATION":53.1597,"RA_OF_ASC_NODE":328.1262,"ARG_OF_PERICENTER":61.3408,"MEAN_ANOMALY":298.7727,"EPHEMERIS_TYPE":0,"CLASSIFICATION_TYPE":"U","NORAD_CAT_ID":66290,"ELEMENT_SET_NO":999,"REV_AT_EPOCH":1657,"BSTAR":0.0015637618,"MEAN_MOTION_DOT":0.00046246,"MEAN_MOTION_DDOT":0},{"OBJECT_NAME":"STARLINK-35800","OBJECT_ID":"2025-247AC","EPOCH":"2026-02-08T03:15:11.875968","MEAN_MOTION":15.30185753,"ECCENTRICITY":0.00011552,"INCLINATION":53.1604,"RA_OF_ASC_NODE":328.3691,"ARG_OF_PERICENTER":85.5625,"MEAN_ANOMALY":274.5507,"EPHEMERIS_TYPE":0,"CLASSIFICATION_TYPE":"U","NORAD_CAT_ID":66291,"ELEMENT_SET_NO":999,"REV_AT_EPOCH":1656,"BSTAR":0.0022673428,"MEAN_MOTION_DOT":0.00067374,"MEAN_MOTION_DDOT":0},{"OBJECT_NAME":"STARLINK-35798","OBJECT_ID":"2025-247AD","EPOCH":"2026-02-08T04:55:19.496928","MEAN_MOTION":15.30180556,"ECCENTRICITY":0.00012501,"INCLINATION":53.16,"RA_OF_ASC_NODE":328.0915,"ARG_OF_PERICENTER":80.6252,"MEAN_ANOMALY":279.489,"EPHEMERIS_TYPE":0,"CLASSIFICATION_TYPE":"U","NORAD_CAT_ID":66292,"ELEMENT_SET_NO":999,"REV_AT_EPOCH":1651,"BSTAR":0.0012057695,"MEAN_MOTION_DOT":0.00035501,"MEAN_MOTION_DDOT":0},{"OBJECT_NAME":"STARLINK-35442","OBJECT_ID":"2025-253A","EPOCH":"2026-02-08T06:50:13.456608","MEAN_MOTION":15.27603717,"ECCENTRICITY":0.0005092,"INCLINATION":43.0001,"RA_OF_ASC_NODE":18.8974,"ARG_OF_PERICENTER":231.2867,"MEAN_ANOMALY":128.753,"EPHEMERIS_TYPE":0,"CLASSIFICATION_TYPE":"U","NORAD_CAT_ID":66319,"ELEMENT_SET_NO":999,"REV_AT_EPOCH":1574,"BSTAR":0.00092958885,"MEAN_MOTION_DOT":0.00025432,"MEAN_MOTION_DDOT":0},{"OBJECT_NAME":"STARLINK-34616","OBJECT_ID":"2025-253B","EPOCH":"2026-02-07T07:34:22.626624","MEAN_MOTION":15.27588921,"ECCENTRICITY":0.0003889,"INCLINATION":43.0002,"RA_OF_ASC_NODE":23.6559,"ARG_OF_PERICENTER":38.9959,"MEAN_ANOMALY":321.1172,"EPHEMERIS_TYPE":0,"CLASSIFICATION_TYPE":"U","NORAD_CAT_ID":66320,"ELEMENT_SET_NO":999,"REV_AT_EPOCH":1568,"BSTAR":0.0013189,"MEAN_MOTION_DOT":0.00036224,"MEAN_MOTION_DDOT":0},{"OBJECT_NAME":"STARLINK-34615","OBJECT_ID":"2025-253C","EPOCH":"2026-02-08T06:09:31.991328","MEAN_MOTION":15.27619886,"ECCENTRICITY":0.0001285,"INCLINATION":43.0031,"RA_OF_ASC_NODE":18.6586,"ARG_OF_PERICENTER":263.5621,"MEAN_ANOMALY":96.5085,"EPHEMERIS_TYPE":0,"CLASSIFICATION_TYPE":"U","NORAD_CAT_ID":66321,"ELEMENT_SET_NO":999,"REV_AT_EPOCH":1574,"BSTAR":0.0010685378,"MEAN_MOTION_DOT":0.00029294,"MEAN_MOTION_DDOT":0},{"OBJECT_NAME":"STARLINK-35292","OBJECT_ID":"2025-253D","EPOCH":"2026-02-08T04:18:43.831008","MEAN_MOTION":15.27607737,"ECCENTRICITY":0.0001098,"INCLINATION":43.0029,"RA_OF_ASC_NODE":18.969,"ARG_OF_PERICENTER":252.0389,"MEAN_ANOMALY":108.0343,"EPHEMERIS_TYPE":0,"CLASSIFICATION_TYPE":"U","NORAD_CAT_ID":66322,"ELEMENT_SET_NO":999,"REV_AT_EPOCH":1573,"BSTAR":0.0010772529,"MEAN_MOTION_DOT":0.00029525,"MEAN_MOTION_DDOT":0},{"OBJECT_NAME":"STARLINK-35309","OBJECT_ID":"2025-253E","EPOCH":"2026-02-06T09:21:33.358752","MEAN_MOTION":15.27613214,"ECCENTRICITY":0.00013702,"INCLINATION":43.0014,"RA_OF_ASC_NODE":29.6064,"ARG_OF_PERICENTER":271.5992,"MEAN_ANOMALY":88.4703,"EPHEMERIS_TYPE":0,"CLASSIFICATION_TYPE":"U","NORAD_CAT_ID":66323,"ELEMENT_SET_NO":999,"REV_AT_EPOCH":1545,"BSTAR":0.0009197307,"MEAN_MOTION_DOT":0.00025159,"MEAN_MOTION_DDOT":0},{"OBJECT_NAME":"STARLINK-35506","OBJECT_ID":"2025-253F","EPOCH":"2026-02-07T07:39:53.528256","MEAN_MOTION":15.27619379,"ECCENTRICITY":0.0002524,"INCLINATION":43.0052,"RA_OF_ASC_NODE":23.6871,"ARG_OF_PERICENTER":288.9172,"MEAN_ANOMALY":71.1406,"EPHEMERIS_TYPE":0,"CLASSIFICATION_TYPE":"U","NORAD_CAT_ID":66324,"ELEMENT_SET_NO":999,"REV_AT_EPOCH":1560,"BSTAR":0.0014396963,"MEAN_MOTION_DOT":0.00039618,"MEAN_MOTION_DDOT":0},{"OBJECT_NAME":"STARLINK-35504","OBJECT_ID":"2025-253G","EPOCH":"2026-02-08T00:39:11.317248","MEAN_MOTION":15.27598361,"ECCENTRICITY":0.00014043,"INCLINATION":43.0002,"RA_OF_ASC_NODE":20.4001,"ARG_OF_PERICENTER":279.0124,"MEAN_ANOMALY":81.0569,"EPHEMERIS_TYPE":0,"CLASSIFICATION_TYPE":"U","NORAD_CAT_ID":66325,"ELEMENT_SET_NO":999,"REV_AT_EPOCH":1570,"BSTAR":0.00055936153,"MEAN_MOTION_DOT":0.00015171,"MEAN_MOTION_DDOT":0},{"OBJECT_NAME":"STARLINK-35479","OBJECT_ID":"2025-253H","EPOCH":"2026-02-08T00:04:00.240384","MEAN_MOTION":15.27629795,"ECCENTRICITY":0.00020036,"INCLINATION":43.0025,"RA_OF_ASC_NODE":20.2106,"ARG_OF_PERICENTER":179.7156,"MEAN_ANOMALY":180.3697,"EPHEMERIS_TYPE":0,"CLASSIFICATION_TYPE":"U","NORAD_CAT_ID":66326,"ELEMENT_SET_NO":999,"REV_AT_EPOCH":1570,"BSTAR":0.00092051737,"MEAN_MOTION_DOT":0.00025194,"MEAN_MOTION_DDOT":0},{"OBJECT_NAME":"STARLINK-35507","OBJECT_ID":"2025-253J","EPOCH":"2026-02-07T23:32:34.052352","MEAN_MOTION":15.27595778,"ECCENTRICITY":1.55e-5,"INCLINATION":43.0005,"RA_OF_ASC_NODE":20.0503,"ARG_OF_PERICENTER":267.6585,"MEAN_ANOMALY":92.4249,"EPHEMERIS_TYPE":0,"CLASSIFICATION_TYPE":"U","NORAD_CAT_ID":66327,"ELEMENT_SET_NO":999,"REV_AT_EPOCH":1570,"BSTAR":0.0013268,"MEAN_MOTION_DOT":0.00036448,"MEAN_MOTION_DDOT":0},{"OBJECT_NAME":"STARLINK-35460","OBJECT_ID":"2025-253K","EPOCH":"2026-02-08T06:44:41.764416","MEAN_MOTION":15.27608041,"ECCENTRICITY":0.00012831,"INCLINATION":43.0013,"RA_OF_ASC_NODE":18.8588,"ARG_OF_PERICENTER":269.9509,"MEAN_ANOMALY":90.1196,"EPHEMERIS_TYPE":0,"CLASSIFICATION_TYPE":"U","NORAD_CAT_ID":66328,"ELEMENT_SET_NO":999,"REV_AT_EPOCH":1574,"BSTAR":0.00083857558,"MEAN_MOTION_DOT":0.00022905,"MEAN_MOTION_DDOT":0},{"OBJECT_NAME":"STARLINK-35505","OBJECT_ID":"2025-253L","EPOCH":"2026-02-07T23:58:27.552864","MEAN_MOTION":15.27632942,"ECCENTRICITY":0.00024909,"INCLINATION":43.0039,"RA_OF_ASC_NODE":20.1879,"ARG_OF_PERICENTER":230.6335,"MEAN_ANOMALY":129.4297,"EPHEMERIS_TYPE":0,"CLASSIFICATION_TYPE":"U","NORAD_CAT_ID":66329,"ELEMENT_SET_NO":999,"REV_AT_EPOCH":1570,"BSTAR":0.0016807447,"MEAN_MOTION_DOT":0.00046356,"MEAN_MOTION_DDOT":0},{"OBJECT_NAME":"STARLINK-35512","OBJECT_ID":"2025-253M","EPOCH":"2026-02-08T06:35:27.128256","MEAN_MOTION":15.27572037,"ECCENTRICITY":0.00013301,"INCLINATION":43.0001,"RA_OF_ASC_NODE":18.8188,"ARG_OF_PERICENTER":265.446,"MEAN_ANOMALY":94.624,"EPHEMERIS_TYPE":0,"CLASSIFICATION_TYPE":"U","NORAD_CAT_ID":66330,"ELEMENT_SET_NO":999,"REV_AT_EPOCH":1574,"BSTAR":0.00093227779,"MEAN_MOTION_DOT":0.00025475,"MEAN_MOTION_DDOT":0},{"OBJECT_NAME":"STARLINK-35257","OBJECT_ID":"2025-253N","EPOCH":"2026-02-07T23:27:00.360000","MEAN_MOTION":15.27612415,"ECCENTRICITY":6.66e-5,"INCLINATION":43.0004,"RA_OF_ASC_NODE":20.016,"ARG_OF_PERICENTER":263.8426,"MEAN_ANOMALY":96.235,"EPHEMERIS_TYPE":0,"CLASSIFICATION_TYPE":"U","NORAD_CAT_ID":66331,"ELEMENT_SET_NO":999,"REV_AT_EPOCH":1570,"BSTAR":0.00087419,"MEAN_MOTION_DOT":0.00023895,"MEAN_MOTION_DDOT":0},{"OBJECT_NAME":"STARLINK-35322","OBJECT_ID":"2025-253P","EPOCH":"2026-02-07T23:41:50.198784","MEAN_MOTION":15.27600206,"ECCENTRICITY":0.0001578,"INCLINATION":43.0037,"RA_OF_ASC_NODE":20.1033,"ARG_OF_PERICENTER":286.4858,"MEAN_ANOMALY":73.5821,"EPHEMERIS_TYPE":0,"CLASSIFICATION_TYPE":"U","NORAD_CAT_ID":66332,"ELEMENT_SET_NO":999,"REV_AT_EPOCH":1570,"BSTAR":0.00099987,"MEAN_MOTION_DOT":0.00027371,"MEAN_MOTION_DDOT":0},{"OBJECT_NAME":"STARLINK-35400","OBJECT_ID":"2025-253Q","EPOCH":"2026-02-07T09:05:02.650560","MEAN_MOTION":15.2760614,"ECCENTRICITY":0.00015729,"INCLINATION":43.0021,"RA_OF_ASC_NODE":24.1304,"ARG_OF_PERICENTER":279.2173,"MEAN_ANOMALY":80.8501,"EPHEMERIS_TYPE":0,"CLASSIFICATION_TYPE":"U","NORAD_CAT_ID":66333,"ELEMENT_SET_NO":999,"REV_AT_EPOCH":1560,"BSTAR":0.0018325153,"MEAN_MOTION_DOT":0.00050552,"MEAN_MOTION_DDOT":0}]
